HST                     
1 20580U 90037B   26158.29828937  .00006010  00000+0  18954-3 0  9990
2 20580  28.4712 148.1547 0001938  44.7656 315.3096 15.30642118787059
POLAR                   
1 23802U 96013A   26158.02404795  .00000119  00000+0  00000+0 0  9996
2 23802  79.8419 227.1714 6460466 209.4311  89.2180  1.29846147144729
SWAS                    
1 25560U 98071A   26158.67281271  .00005059  00000+0  32051-3 0  9991
2 25560  69.8961 252.0536 0008916 268.5659  91.4484 15.09566126495837
CXO                     
1 25867U 99040B   26161.44248450  .00000667  00000+0  00000+0 0  9994
2 25867  56.0540 116.8503 7852548 310.2578   0.2529  0.37805334 17299
XMM-NEWTON              
1 25989U 99066A   26157.37875651  .00000096  00000+0  00000+0 0  9999
2 25989  64.5482 283.1267 4678331  65.0797   0.1118  0.50125302 22956
TERRA                   
1 25994U 99068A   26158.77317609  .00000478  00000+0  10624-3 0  9997
2 25994  97.9460 208.6923 0000911 236.1841 189.1368 14.61096106408239
CLUSTER II-FM7 (SAMBA)  
1 26410U 00041A   26159.21452506  .00004289  00000+0  00000+0 0  9997
2 26410 149.9021  49.0985 9044304 266.1693 359.9197  0.44821039 20278
CLUSTER II-FM8 (TANGO)  
1 26464U 00045B   26157.18212104  .00004544  00000+0  00000+0 0  9996
2 26464 150.1407  49.6985 9046201 266.6195   3.2041  0.44406384 20263
ODIN                    
1 26702U 01007A   26158.62318948  .00153925  00000+0  11261-2 0  9995
2 26702  97.3847 198.9732 0006448 154.8050 205.3529 15.72721006387893
TIMED                   
1 26998U 01055B   26158.70833299  .00001672  00000+0  15537-3 0  9997
2 26998  74.0680 254.1033 0000586 355.2108   4.9071 14.95274661329406
CORIOLIS                
1 27640U 03001A   26158.75485683  .00000126  00000+0  79797-4 0  9992
2 27640  98.7126 165.7837 0012947 237.7212 122.2710 14.19942336212886
SORCE                   
1 27651U 03004A   26158.70861574  .00003445  00000+0  25720-3 0  9992
2 27651  39.9917 315.7552 0017869 339.7662  20.2423 15.03662902270473
MOST                    
1 27843U 03031D   26158.77811676  .00000088  00000+0  60262-4 0  9991
2 27843  98.7045 166.6354 0008706 281.2523  78.7675 14.21320641189376
SCISAT 1                
1 27858U 03036A   26158.50133803  .00000659  00000+0  88845-4 0  9993
2 27858  73.9288 190.5875 0008696 259.4249 100.5948 14.81438609230015
SWIFT                   
1 28485U 04047A   26157.62516102  .00061964  00000+0  53892-3 0  9991
2 28485  20.5528 266.3162 0002758 138.0120 222.0537 15.67271412185207
HINODE (SOLAR-B)        
1 29479U 06041A   26158.64687845  .00000900  00000+0  16314-3 0  9998
2 29479  98.0548 174.9399 0016469 322.4579  37.5475 14.68610457 53479
SHIJIAN-6 02A (SJ-6 02A)
1 29505U 06046A   26158.85631769  .00005378  00000+0  27697-3 0  9990
2 29505  97.6362 199.8538 0003618 147.2750 212.8707 15.16830225 70853
SHIJIAN-6 02B (SJ-6 02B)
1 29506U 06046B   26158.81573520  .00001511  00000+0  12180-3 0  9993
2 29506  97.7162 187.9322 0014679  87.6173 272.6732 15.01352968 69337
FGRST (GLAST)           
1 33053U 08029A   26158.60315538  .00004089  00000+0  15084-3 0  9997
2 33053  25.5826 271.0282 0007882 210.1465 149.8620 15.23900719994379
SDO                     
1 36395U 10005A   26158.33980132 -.00000060  00000+0  00000+0 0  9998
2 36395  34.6306  86.4930 0001446  51.5823 138.0028  1.00270991 59969
CRYOSAT 2               
1 36508U 10013A   26158.77727301  .00000161  00000+0  39189-4 0  9994
2 36508  92.0348 275.0148 0002237  85.9908 274.1555 14.51896581856714
X-SAT                   
1 37389U 11015C   26158.81800384  .00000163  00000+0  86999-4 0  9996
2 37389  98.3512 136.2883 0014555  15.6618 344.5010 14.25203588786341
GCOM-W1 (SHIZUKU)       
1 38337U 12025A   26158.76302581  .00000550  00000+0  13207-3 0  9993
2 38337  98.2019  99.4615 0001863  82.1965 341.9746 14.57116187747663
NUSTAR                  
1 38358U 12031A   26158.91670139  .00008520  00000+0  47340-3 0  9997
2 38358   6.0251 103.6662 0008560 325.0278  32.7566 15.08711189  1295
NEOSSAT                 
1 39089U 13009D   26158.73214015  .00000164  00000+0  71527-4 0  9993
2 39089  98.4176 338.9899 0009785 275.4031  84.6039 14.35823197695380
BRITE-AUSTRIA           
1 39091U 13009F   26158.73546881  .00000212  00000+0  86658-4 0  9990
2 39091  98.3993 338.4054 0008958 268.4216  91.5944 14.36538507695690
IRIS                    
1 39197U 13033A   26158.80443294  .00001302  00000+0  15514-3 0  9999
2 39197  97.9336 358.1109 0024283 353.2047   6.8835 14.85867631698987
HISAKI (SPRINT-A)       
1 39253U 13049A   26158.62776437  .00000136  00000+0  94719-4 0  9996
2 39253  29.7208 268.6136 0136908 299.3867  59.3097 13.55543700630123
CASSIOPE                
1 39265U 13055A   26158.77784869  .00043912 -54215-6  48455-3 0  9999
2 39265  80.9145  78.1389 0295896  93.9979 269.5130 15.24343425666237
STSAT-3                 
1 39422U 13066G   26158.85716346  .00004126  00000+0  31319-3 0  9990
2 39422  97.6217 128.8961 0010927  69.6139 290.6259 15.02702323682804
SWARM B                 
1 39451U 13067A   26158.83736137  .00003776  00000+0  13499-3 0  9990
2 39451  87.7443 345.1582 0003398  90.9999 269.1640 15.28495435681811
